{"type": "FeatureCollection", "features": [ {"type": "Feature", "properties": {"norad_id": 40230, "name": "COSMOS 2251 DEB", "group": "cosmos-2251-debris", "lat": 33.046288185982796, "lon": 9.259624744692955, "alt_km": 729.9762185514519, "timestamp": "2025-12-27T02:10:16.587304+00:00", "meta": {"OBJECT_NAME": "COSMOS 2251 DEB", "OBJECT_ID": "1993-036BVK", "EPOCH": "2025-12-20T07:41:52.070784", "MEAN_MOTION": 14.49354869, "ECCENTRICITY": 0.00189754, "INCLINATION": 74.0435, "RA_OF_ASC_NODE": 212.675, "ARG_OF_PERICENTER": 270.0639, "MEAN_ANOMALY": 207.3635, "EPHEMERIS_TYPE": 0, "CLASSIFICATION_TYPE": "U", "NORAD_CAT_ID": 40230, "ELEMENT_SET_NO": 999, "REV_AT_EPOCH": 59081, "BSTAR": 0.00041501757, "MEAN_MOTION_DOT": 1.562e-05, "MEAN_MOTION_DDOT": 0}, "tle": {"line1": "1 40230U 93036BVK 25354.32074156  .00001562  00000+0  41502-3 0  9995", "line2": "2 40230  74.0435 212.6750 0018975 270.0639 207.3635 14.49354869590816"}}, "geometry": {"type": "Point", "coordinates": [9.259624744692955, 33.046288185982796]}}, {"type": "Feature", "properties": {"norad_id": 40233, "name": "COSMOS 2251 DEB", "group": "cosmos-2251-debris", "lat": 71.57470928368811, "lon": 135.47538828414028, "alt_km": 678.0022540672744, "timestamp": "2025-12-27T02:10:16.587314+00:00", "meta": {"OBJECT_NAME": "COSMOS 2251 DEB", "OBJECT_ID": "1993-036BVN", "EPOCH": "2025-12-25T05:21:19.677024", "MEAN_MOTION": 14.58549928, "ECCENTRICITY": 0.004418, "INCLINATION": 73.9403, "RA_OF_ASC_NODE": 79.204, "ARG_OF_PERICENTER": 151.4765, "MEAN_ANOMALY": 208.8831, "EPHEMERIS_TYPE": 0, "CLASSIFICATION_TYPE": "U", "NORAD_CAT_ID": 40233, "ELEMENT_SET_NO": 999, "REV_AT_EPOCH": 59319, "BSTAR": 0.0011641, "MEAN_MOTION_DOT": 5.46e-05, "MEAN_MOTION_DDOT": 0}, "tle": {"line1": "1 40233U 93036BVN 25359.22314441  .00005460  00000+0  11641-2 0  9997", "line2": "2 40233  73.9403  79.2040 0044180 151.4765 208.8831 14.58549928593190"}}, "geometry": {"type": "Point", "coordinates": [135.47538828414028, 71.57470928368811]}}, {"type": "Feature", "properties": {"norad_id": 40236, "name": "COSMOS 2251 DEB", "group": "cosmos-2251-debris", "lat": 66.49752586623066, "lon": 163.98835335276434, "alt_km": 1021.412209167037, "timestamp": "2025-12-27T02:10:16.587324+00:00", "meta": {"OBJECT_NAME": "COSMOS 2251 DEB", "OBJECT_ID": "1993-036BVR", "EPOCH": "2025-12-07T17:52:23.026080", "MEAN_MOTION": 13.24639967, "ECCENTRICITY": 0.05366128, "INCLINATION": 73.5349, "RA_OF_ASC_NODE": 151.6266, "ARG_OF_PERICENTER": 32.3576, "MEAN_ANOMALY": 330.9258, "EPHEMERIS_TYPE": 0, "CLASSIFICATION_TYPE": "U", "NORAD_CAT_ID": 40236, "ELEMENT_SET_NO": 999, "REV_AT_EPOCH": 53558, "BSTAR": 0.0015786255, "MEAN_MOTION_DOT": 1.455e-05, "MEAN_MOTION_DDOT": 0}, "tle": {"line1": "1 40236U 93036BVR 25341.74471095  .00001455  00000+0  15786-2 0  9991", "line2": "2 40236  73.5349 151.6266 0536612  32.3576 330.9258 13.24639967535580"}}, "geometry": {"type": "Point", "coordinates": [163.98835335276434, 66.49752586623066]}}, {"type": "Feature", "properties": {"norad_id": 40238, "name": "COSMOS 2251 DEB", "group": "cosmos-2251-debris", "lat": -5.6552975503597755, "lon": -136.8099851070779, "alt_km": 1581.5529032672493, "timestamp": "2025-12-27T02:10:16.587334+00:00", "meta": {"OBJECT_NAME": "COSMOS 2251 DEB", "OBJECT_ID": "1993-036BVT", "EPOCH": "2025-12-24T09:50:08.146464", "MEAN_MOTION": 13.25148444, "ECCENTRICITY": 0.05498783, "INCLINATION": 73.9883, "RA_OF_ASC_NODE": 45.6762, "ARG_OF_PERICENTER": 15.0985, "MEAN_ANOMALY": 346.58, "EPHEMERIS_TYPE": 0, "CLASSIFICATION_TYPE": "U", "NORAD_CAT_ID": 40238, "ELEMENT_SET_NO": 999, "REV_AT_EPOCH": 54191, "BSTAR": 0.0017336803, "MEAN_MOTION_DOT": 1.683e-05, "MEAN_MOTION_DDOT": 0}, "tle": {"line1": "1 40238U 93036BVT 25358.40981651  .00001683  00000+0  17337-2 0  9995", "line2": "2 40238  73.9883  45.6762 0549878  15.0985 346.5800 13.25148444541918"}}, "geometry": {"type": "Point", "coordinates": [-136.8099851070779, -5.6552975503597755]}}, {"type": "Feature", "properties": {"norad_id": 40239, "name": "COSMOS 2251 DEB", "group": "cosmos-2251-debris", "lat": -36.932944063890425, "lon": 80.7853440086372, "alt_km": 736.8536016663538, "timestamp": "2025-12-27T02:10:16.587344+00:00", "meta": {"OBJECT_NAME": "COSMOS 2251 DEB", "OBJECT_ID": "1993-036BVU", "EPOCH": "2025-12-23T23:20:18.364128", "MEAN_MOTION": 14.62039549, "ECCENTRICITY": 0.008546, "INCLINATION": 74.0319, "RA_OF_ASC_NODE": 254.3246, "ARG_OF_PERICENTER": 2.8488, "MEAN_ANOMALY": 11.8068, "EPHEMERIS_TYPE": 0, "CLASSIFICATION_TYPE": "U", "NORAD_CAT_ID": 40239, "ELEMENT_SET_NO": 999, "REV_AT_EPOCH": 59775, "BSTAR": 0.00037675, "MEAN_MOTION_DOT": 1.96e-05, "MEAN_MOTION_DDOT": 0}, "tle": {"line1": "1 40239U 93036BVU 25357.97243477  .00001960  00000+0  37675-3 0  9990", "line2": "2 40239  74.0319 254.3246 0085460   2.8488  11.8068 14.62039549597753"}}, "geometry": {"type": "Point", "coordinates": [80.7853440086372, -36.932944063890425]}}, {"type": "Feature", "properties": {"norad_id": 40792, "name": "COSMOS 2251 DEB", "group": "cosmos-2251-debris", "lat": -44.81482967515114, "lon": 3.240171377326209, "alt_km": 684.687953943122, "timestamp": "2025-12-27T02:10:16.587354+00:00", "meta": {"OBJECT_NAME": "COSMOS 2251 DEB", "OBJECT_ID": "1993-036BVV", "EPOCH": "2025-12-26T10:19:56.254080", "MEAN_MOTION": 14.6770507, "ECCENTRICITY": 0.0014497, "INCLINATION": 74.0454, "RA_OF_ASC_NODE": 21.0269, "ARG_OF_PERICENTER": 120.8372, "MEAN_ANOMALY": 306.5345, "EPHEMERIS_TYPE": 0, "CLASSIFICATION_TYPE": "U", "NORAD_CAT_ID": 40792, "ELEMENT_SET_NO": 999, "REV_AT_EPOCH": 63385, "BSTAR": 0.00091958, "MEAN_MOTION_DOT": 5.217e-05, "MEAN_MOTION_DDOT": 0}, "tle": {"line1": "1 40792U 93036BVV 25360.43051220  .00005217  00000+0  91958-3 0  9995", "line2": "2 40792  74.0454  21.0269 0014497 120.8372 306.5345 14.67705070633854"}}, "geometry": {"type": "Point", "coordinates": [3.240171377326209, -44.81482967515114]}}, {"type": "Feature", "properties": {"norad_id": 40794, "name": "COSMOS 2251 DEB", "group": "cosmos-2251-debris", "lat": -68.59728145883133, "lon": -37.58946173520359, "alt_km": 584.6499787005105, "timestamp": "2025-12-27T02:10:16.587364+00:00", "meta": {"OBJECT_NAME": "COSMOS 2251 DEB", "OBJECT_ID": "1993-036BVX", "EPOCH": "2025-12-24T01:30:51.702624", "MEAN_MOTION": 14.94031865, "ECCENTRICITY": 0.00097276, "INCLINATION": 73.9771, "RA_OF_ASC_NODE": 101.3724, "ARG_OF_PERICENTER": 255.1473, "MEAN_ANOMALY": 282.9356, "EPHEMERIS_TYPE": 0, "CLASSIFICATION_TYPE": "U", "NORAD_CAT_ID": 40794, "ELEMENT_SET_NO": 999, "REV_AT_EPOCH": 62093, "BSTAR": 0.0045652942, "MEAN_MOTION_DOT": 0.00049073, "MEAN_MOTION_DDOT": 0}, "tle": {"line1": "1 40794U 93036BVX 25358.06309841  .00049073  00000+0  45653-2 0  9996", "line2": "2 40794  73.9771 101.3724 0009727 255.1473 282.9356 14.94031865620936"}}, "geometry": {"type": "Point", "coordinates": [-37.58946173520359, -68.59728145883133]}}, {"type": "Feature", "properties": {"norad_id": 40796, "name": "COSMOS 2251 DEB", "group": "cosmos-2251-debris", "lat": 40.14083345477039, "lon": 127.79136625074717, "alt_km": 655.0501176850394, "timestamp": "2025-12-27T02:10:16.587374+00:00", "meta": {"OBJECT_NAME": "COSMOS 2251 DEB", "OBJECT_ID": "1993-036BVZ", "EPOCH": "2025-12-26T16:33:35.172288", "MEAN_MOTION": 14.81907149, "ECCENTRICITY": 0.0055924, "INCLINATION": 74.013, "RA_OF_ASC_NODE": 114.5925, "ARG_OF_PERICENTER": 248.8524, "MEAN_ANOMALY": 177.4514, "EPHEMERIS_TYPE": 0, "CLASSIFICATION_TYPE": "U", "NORAD_CAT_ID": 40796, "ELEMENT_SET_NO": 999, "REV_AT_EPOCH": 76365, "BSTAR": 0.0011253, "MEAN_MOTION_DOT": 9.13e-05, "MEAN_MOTION_DDOT": 0}, "tle": {"line1": "1 40796U 93036BVZ 25360.68999042  .00009130  00000+0  11253-2 0  9996", "line2": "2 40796  74.0130 114.5925 0055924 248.8524 177.4514 14.81907149763658"}}, "geometry": {"type": "Point", "coordinates": [127.79136625074717, 40.14083345477039]}}, {"type": "Feature", "properties": {"norad_id": 40797, "name": "COSMOS 2251 DEB", "group": "cosmos-2251-debris", "lat": -21.047871092432786, "lon": -108.22350024838138, "alt_km": 569.2391126174025, "timestamp": "2025-12-27T02:10:16.587384+00:00", "meta": {"OBJECT_NAME": "COSMOS 2251 DEB", "OBJECT_ID": "1993-036BWA", "EPOCH": "2025-12-26T10:58:54.645024", "MEAN_MOTION": 15.11637987, "ECCENTRICITY": 0.0072436, "INCLINATION": 73.9202, "RA_OF_ASC_NODE": 66.7218, "ARG_OF_PERICENTER": 335.0472, "MEAN_ANOMALY": 24.7224, "EPHEMERIS_TYPE": 0, "CLASSIFICATION_TYPE": "U", "NORAD_CAT_ID": 40797, "ELEMENT_SET_NO": 999, "REV_AT_EPOCH": 64851, "BSTAR": 0.00076331, "MEAN_MOTION_DOT": 0.00013807, "MEAN_MOTION_DDOT": 0}, "tle": {"line1": "1 40797U 93036BWA 25360.45757691  .00013807  00000+0  76331-3 0  9999", "line2": "2 40797  73.9202  66.7218 0072436 335.0472  24.7224 15.11637987648511"}}, "geometry": {"type": "Point", "coordinates": [-108.22350024838138, -21.047871092432786]}}, {"type": "Feature", "properties": {"norad_id": 40799, "name": "COSMOS 2251 DEB", "group": "cosmos-2251-debris", "lat": 12.149565217190014, "lon": -114.41512602177573, "alt_km": 641.7053427134424, "timestamp": "2025-12-27T02:10:16.587394+00:00", "meta": {"OBJECT_NAME": "COSMOS 2251 DEB", "OBJECT_ID": "1993-036BWC", "EPOCH": "2025-12-26T10:58:52.007232", "MEAN_MOTION": 14.96790134, "ECCENTRICITY": 0.0119466, "INCLINATION": 73.9261, "RA_OF_ASC_NODE": 70.4321, "ARG_OF_PERICENTER": 309.4146, "MEAN_ANOMALY": 49.6507, "EPHEMERIS_TYPE": 0, "CLASSIFICATION_TYPE": "U", "NORAD_CAT_ID": 40799, "ELEMENT_SET_NO": 999, "REV_AT_EPOCH": 50182, "BSTAR": 0.00039326, "MEAN_MOTION_DOT": 5.163e-05, "MEAN_MOTION_DDOT": 0}, "tle": {"line1": "1 40799U 93036BWC 25360.45754638  .00005163  00000+0  39326-3 0  9998", "line2": "2 40799  73.9261  70.4321 0119466 309.4146  49.6507 14.96790134501821"}}, "geometry": {"type": "Point", "coordinates": [-114.41512602177573, 12.149565217190014]}}]}